[{"OBJECT_NAME":"STARLINK-5553","OBJECT_ID":"2023-058S","EPOCH":"2026-03-09T22:50:44.154816","MEAN_MOTION":15.05644171,"ECCENTRICITY":0.00018229,"INCLINATION":97.604,"RA_OF_ASC_NODE":71.439,"ARG_OF_PERICENTER":87.1222,"MEAN_ANOMALY":273.0214,"EPHEMERIS_TYPE":0,"CLASSIFICATION_TYPE":"U","NORAD_CAT_ID":56333,"ELEMENT_SET_NO":999,"REV_AT_EPOCH":15823,"BSTAR":1.8477074e-5,"MEAN_MOTION_DOT":2.06e-6,"MEAN_MOTION_DDOT":0},{"OBJECT_NAME":"CZ-6A DEB","OBJECT_ID":"2024-140CA","EPOCH":"2026-03-09T15:46:26.997888","MEAN_MOTION":14.75225257,"ECCENTRICITY":0.02134198,"INCLINATION":89.2806,"RA_OF_ASC_NODE":301.2839,"ARG_OF_PERICENTER":224.2273,"MEAN_ANOMALY":134.1722,"EPHEMERIS_TYPE":0,"CLASSIFICATION_TYPE":"U","NORAD_CAT_ID":60673,"ELEMENT_SET_NO":999,"REV_AT_EPOCH":8478,"BSTAR":0.00067489672,"MEAN_MOTION_DOT":6.643e-5,"MEAN_MOTION_DDOT":0}]
